JCSAT-3A                
1 29272U 06033A   26194.22992623 -.00000347  00000+0  00000+0 0  9994
2 29272   0.0121 340.5163 0002020 141.8792  19.4972  1.00277450 48006
KOREASAT 5 (MUGUNGWHA 5)
1 29349U 06034A   26194.51207491 -.00000363  00000+0  00000+0 0  9992
2 29349   1.8507  82.6628 0001788  81.8425  64.2860  1.00270509 41582
DIRECTV 9S              
1 29494U 06043A   26194.51503030 -.00000119  00000+0  00000+0 0  9990
2 29494   2.4863  80.5839 0004982  33.5801 261.4343  1.00270971 51645
OPTUS D1                
1 29495U 06043B   26194.50947581 -.00000191  00000+0  00000+0 0  9993
2 29495   3.1001  79.3324 0003306  31.1774 156.2447  1.00270136 72388
BADR-4                  
1 29526U 06051A   26194.49656550  .00000150  00000+0  00000+0 0  9992
2 29526   2.0703  80.8310 0004703  29.2687  34.4828  1.00270270 51538
WILDBLUE-1              
1 29643U 06054A   26194.52058796 -.00000056  00000+0  00000+0 0  9993
2 29643   2.8686  80.1518 0001248  37.4327 250.0130  1.00271075 54058
SKYNET 5A               
1 30794U 07007B   26194.12316917 -.00000278  00000+0  00000+0 0  9995
2 30794   5.3640  73.4238 0003694  42.2508 314.8812  1.00270137 70952
ANIK F3                 
1 31102U 07009A   26194.51153159 -.00000006  00000+0  00000+0 0  9990
2 31102   1.2632  83.5323 0002417  27.0385 246.2433  1.00270748 46829
ASTRA 1L                
1 31306U 07016A   26194.48469211 -.00000189  00000+0  00000+0 0  9991
2 31306   1.3873  81.3655 0005164  33.3921 326.5844  1.00271336 45242
GALAXY 17 (G-17)        
1 31307U 07016B   26194.33308943 -.00000212  00000+0  00000+0 0  9997
2 31307   3.0354  79.5702 0003549  34.5905 211.9325  1.00270253 70064
INTELSAT 11 (IS-11)     
1 32253U 07044B   26194.27799500 -.00000118  00000+0  00000+0 0  9990
2 32253   3.6309  78.3524 0004116 100.7185 223.1796  0.99051585 68704
WGS F1 (USA 195)        
1 32258U 07046A   26194.48131207 -.00000271  00000+0  00000+0 0  9994
2 32258   0.0152  66.1958 0000431 163.8151 192.1169  1.00269562 52599
SKYNET 5B               
1 32294U 07056B   26194.32753155  .00000132  00000+0  00000+0 0  9995
2 32294   5.3162  73.1915 0003729  40.7943 320.2204  1.00273791 68460
ASTRA 4A                
1 32299U 07057A   26194.34805051  .00000029  00000+0  00000+0 0  9991
2 32299   0.0450 283.3276 0002241 195.2874 302.6980  1.00270695 51905
HORIZONS-2              
1 32388U 07063B   26194.47507205 -.00000259  00000+0  00000+0 0  9997
2 32388   2.6675  80.3028 0003522  19.1831 289.0858  1.00269706 68070
THURAYA-3               
1 32404U 08001A   26194.14585395  .00000003  00000+0  00000+0 0  9995
2 32404   6.0320  35.8179 0002086  76.6770 294.7294  1.00271265 67754
THOR 5                  
1 32487U 08006A   26194.34701051 -.00000012  00000+0  00000+0 0  9993
2 32487   0.0534 235.3925 0002273 245.8359 294.1590  1.00270867 67573
AMC-14                  
1 32708U 08011A   26194.02247571 -.00000176  00000+0  00000+0 0  9993
2 32708  24.0400  20.2077 0039304   8.4286 347.9620  1.00420278 68422
DIRECTV 11              
1 32729U 08013A   26194.40716786 -.00000129  00000+0  00000+0 0  9997
2 32729   0.0114 268.1640 0000124 271.7931 158.7216  1.00272539 45856
ICO G1                  
1 32763U 08016A   26194.51503030 -.00000179  00000+0  00000+0 0  9991
2 32763   5.5301  36.0555 0002414  63.7375 284.1531  1.00269278 66802
VINASAT-1               
1 32767U 08018A   26194.51588824 -.00000332  00000+0  00000+0 0  9992
2 32767   0.0324 296.3012 0001405 196.6072 116.1407  1.00270032 66850
STAR ONE C2             
1 32768U 08018B   26194.47680538 -.00000281  00000+0  00000+0 0  9996
2 32768   1.3051  82.2141 0002674  46.4651 269.3196  1.00271405 66919
AMOS-3                  
1 32794U 08022A   26194.50141883  .00000012  00000+0  00000+0 0  9990
2 32794   0.5208  85.8300 0002985  85.0291 359.9625  1.00487622 82600
GALAXY 18 (G-18)        
1 32951U 08024A   26194.51215646  .00000021  00000+0  00000+0 0  9997
2 32951   0.0180  40.4081 0002807  85.1682 227.1816  1.00270959 46117
ZHONGXING-9             
1 33051U 08028A   26194.50800156 -.00000253  00000+0  00000+0 0  9996
2 33051   0.8327  85.0001 0003265  23.2830  98.3484  1.00269848 66301
SKYNET 5C               
1 33055U 08030A   26194.41488325 -.00000147  00000+0  00000+0 0  9995
2 33055   3.8535  76.7282 0004038  45.0874 301.0284  1.00272337 66215
TURKSAT 3A              
1 33056U 08030B   26194.49803882  .00000143  00000+0  00000+0 0  9998
2 33056   0.0303  70.8410 0004891  22.6280  59.1801  1.00269331 52621
ECHOSTAR 11             
1 33207U 08035A   26194.50662860 -.00000063  00000+0  00000+0 0  9994
2 33207   1.0709  83.8745 0002180  17.5272 262.5632  1.00270611 51475
SUPERBIRD-C2            
1 33274U 08038A   26194.51666824 -.00000313  00000+0  00000+0 0  9994
2 33274   2.4265  80.9360 0006130  39.5651 132.8867  1.00269677105992
INMARSAT 4-F3           
1 33278U 08039A   26194.41704983 -.00000146  00000+0  00000+0 0  9991
2 33278   4.3147  31.6906 0002806  83.9617 227.7818  1.00272527 46808
NIMIQ 4                 
1 33373U 08044A   26194.50947838  .00000000  00000+0  00000+0 0  9999
2 33373   0.0399  70.6682 0001925  43.2428 278.9179  1.00268120 65241
GALAXY 19 (G-19)        
1 33376U 08045A   26194.50176912 -.00000143  00000+0  00000+0 0  9999
2 33376   0.0623 250.4882 0002280 234.0938 250.4324  1.00272604 65165
